STARLINK-36863          
1 67949U 26037T   26066.91668981 -.01441320  00000+0 -62336-2 0  9999
2 67949  42.9996 209.2936 0001837 281.8495  19.3860 15.86874946  2910
STARLINK-36887          
1 67950U 26037U   26066.91668981 -.01452270  00000+0 -62625-2 0  9998
2 67950  42.9993 209.2835 0001576 278.1451  27.0286 15.86961352  2914
STARLINK-36897          
1 67951U 26037V   26066.91668981 -.01448953  00000+0 -62106-2 0  9996
2 67951  42.9993 209.2746 0001426 278.5460  30.3036 15.87076938  2912
STARLINK-36381          
1 67952U 26037W   26066.91668981 -.01447270  00000+0 -61162-2 0  9999
2 67952  42.9996 209.2567 0001835 281.4543  34.4194 15.87349912  2911
STARLINK-36824          
1 67953U 26037X   26066.91668981 -.01447322  00000+0 -61598-2 0  9991
2 67953  42.9995 209.2655 0001636 280.9102  31.4634 15.87212065  2917
STARLINK-36869          
1 67954U 26037Y   26066.91668981 -.01438808  00000+0 -60264-2 0  9990
2 67954  42.9996 209.2481 0001771 281.4745  37.6652 15.87510478  2912
STARLINK-36872          
1 67955U 26037Z   26066.91668981 -.01442051  00000+0 -59753-2 0  9997
2 67955  42.9995 209.2293 0001828 281.5815  44.9046 15.87730339  2913
STARLINK-36918          
1 67956U 26037AA  26066.91668981 -.01448071  00000+0 -59740-2 0  9992
2 67956  42.9996 209.2197 0001829 281.2660  48.9894 15.87830154  2915
STARLINK-36829          
1 67957U 26037AB  26066.91668981 -.01437290  00000+0 -59808-2 0  9999
2 67957  42.9993 209.2392 0001876 281.4232  41.2615 15.87635611  2917
STARLINK-36799          
1 67958U 26037AC  26066.91668981 -.01446546  00000+0 -59283-2 0  9991
2 67958  42.9992 209.2114 0001980 281.9343  51.8461 15.87956007  2914
STARLINK-36834          
1 67959U 26037AD  26066.91668981 -.01455991  00000+0 -59138-2 0  9995
2 67959  42.9994 209.1920 0001674 280.1983  61.0855 15.88157426  2911
STARLINK-36841          
1 67960U 26037AE  26066.91668981 -.01453705  00000+0 -59288-2 0  9994
2 67960  42.9991 209.2016 0001783 281.0792  56.3522 15.88070072  2915
