CCSDS_OMM_VERS = 2.0
CREATION_DATE  = 
ORIGINATOR     = 

OBJECT_NAME    = STARLINK-36863
OBJECT_ID      = 2026-037T
CENTER_NAME    = EARTH
REF_FRAME      = TEME
TIME_SYSTEM    = UTC
MEAN_ELEMENT_THEORY = SGP/SGP4

EPOCH          = 2026-03-07T22:00:01.999584
MEAN_MOTION    = 15.86874946
ECCENTRICITY   = .0001838
INCLINATION    = 42.9996
RA_OF_ASC_NODE = 209.2936
ARG_OF_PERICENTER = 281.8495
MEAN_ANOMALY   = 19.3860

EPHEMERIS_TYPE = 0
CLASSIFICATION_TYPE = U
NORAD_CAT_ID   = 67949
ELEMENT_SET_NO = 999
REV_AT_EPOCH   = 291
BSTAR          = -.62336E-2
MEAN_MOTION_DOT = -.144132E-1
MEAN_MOTION_DDOT = 0

CCSDS_OMM_VERS = 2.0
CREATION_DATE  = 
ORIGINATOR     = 

OBJECT_NAME    = STARLINK-36887
OBJECT_ID      = 2026-037U
CENTER_NAME    = EARTH
REF_FRAME      = TEME
TIME_SYSTEM    = UTC
MEAN_ELEMENT_THEORY = SGP/SGP4

EPOCH          = 2026-03-07T22:00:01.999584
MEAN_MOTION    = 15.86961352
ECCENTRICITY   = .0001576
INCLINATION    = 42.9993
RA_OF_ASC_NODE = 209.2835
ARG_OF_PERICENTER = 278.1451
MEAN_ANOMALY   = 27.0286

EPHEMERIS_TYPE = 0
CLASSIFICATION_TYPE = U
NORAD_CAT_ID   = 67950
ELEMENT_SET_NO = 999
REV_AT_EPOCH   = 291
BSTAR          = -.62625E-2
MEAN_MOTION_DOT = -.145227E-1
MEAN_MOTION_DDOT = 0

CCSDS_OMM_VERS = 2.0
CREATION_DATE  = 
ORIGINATOR     = 

OBJECT_NAME    = STARLINK-36897
OBJECT_ID      = 2026-037V
CENTER_NAME    = EARTH
REF_FRAME      = TEME
TIME_SYSTEM    = UTC
MEAN_ELEMENT_THEORY = SGP/SGP4

EPOCH          = 2026-03-07T22:00:01.999584
MEAN_MOTION    = 15.87076938
ECCENTRICITY   = .0001426
INCLINATION    = 42.9993
RA_OF_ASC_NODE = 209.2746
ARG_OF_PERICENTER = 278.5460
MEAN_ANOMALY   = 30.3036

EPHEMERIS_TYPE = 0
CLASSIFICATION_TYPE = U
NORAD_CAT_ID   = 67951
ELEMENT_SET_NO = 999
REV_AT_EPOCH   = 291
BSTAR          = -.62106E-2
MEAN_MOTION_DOT = -.1448953E-1
MEAN_MOTION_DDOT = 0

CCSDS_OMM_VERS = 2.0
CREATION_DATE  = 
ORIGINATOR     = 

OBJECT_NAME    = STARLINK-36381
OBJECT_ID      = 2026-037W
CENTER_NAME    = EARTH
REF_FRAME      = TEME
TIME_SYSTEM    = UTC
MEAN_ELEMENT_THEORY = SGP/SGP4

EPOCH          = 2026-03-07T22:00:01.999584
MEAN_MOTION    = 15.87349912
ECCENTRICITY   = .0001836
INCLINATION    = 42.9996
RA_OF_ASC_NODE = 209.2567
ARG_OF_PERICENTER = 281.4543
MEAN_ANOMALY   = 34.4194

EPHEMERIS_TYPE = 0
CLASSIFICATION_TYPE = U
NORAD_CAT_ID   = 67952
ELEMENT_SET_NO = 999
REV_AT_EPOCH   = 291
BSTAR          = -.61162E-2
MEAN_MOTION_DOT = -.144727E-1
MEAN_MOTION_DDOT = 0

CCSDS_OMM_VERS = 2.0
CREATION_DATE  = 
ORIGINATOR     = 

OBJECT_NAME    = STARLINK-36824
OBJECT_ID      = 2026-037X
CENTER_NAME    = EARTH
REF_FRAME      = TEME
TIME_SYSTEM    = UTC
MEAN_ELEMENT_THEORY = SGP/SGP4

EPOCH          = 2026-03-07T22:00:01.999584
MEAN_MOTION    = 15.87212065
ECCENTRICITY   = .0001637
INCLINATION    = 42.9995
RA_OF_ASC_NODE = 209.2655
ARG_OF_PERICENTER = 280.9102
MEAN_ANOMALY   = 31.4634

EPHEMERIS_TYPE = 0
CLASSIFICATION_TYPE = U
NORAD_CAT_ID   = 67953
ELEMENT_SET_NO = 999
REV_AT_EPOCH   = 291
BSTAR          = -.61598E-2
MEAN_MOTION_DOT = -.1447322E-1
MEAN_MOTION_DDOT = 0

CCSDS_OMM_VERS = 2.0
CREATION_DATE  = 
ORIGINATOR     = 

OBJECT_NAME    = STARLINK-36869
OBJECT_ID      = 2026-037Y
CENTER_NAME    = EARTH
REF_FRAME      = TEME
TIME_SYSTEM    = UTC
MEAN_ELEMENT_THEORY = SGP/SGP4

EPOCH          = 2026-03-07T22:00:01.999584
MEAN_MOTION    = 15.87510478
ECCENTRICITY   = .0001772
INCLINATION    = 42.9996
RA_OF_ASC_NODE = 209.2481
ARG_OF_PERICENTER = 281.4745
MEAN_ANOMALY   = 37.6652

EPHEMERIS_TYPE = 0
CLASSIFICATION_TYPE = U
NORAD_CAT_ID   = 67954
ELEMENT_SET_NO = 999
REV_AT_EPOCH   = 291
BSTAR          = -.60264E-2
MEAN_MOTION_DOT = -.1438808E-1
MEAN_MOTION_DDOT = 0

CCSDS_OMM_VERS = 2.0
CREATION_DATE  = 
ORIGINATOR     = 

OBJECT_NAME    = STARLINK-36872
OBJECT_ID      = 2026-037Z
CENTER_NAME    = EARTH
REF_FRAME      = TEME
TIME_SYSTEM    = UTC
MEAN_ELEMENT_THEORY = SGP/SGP4

EPOCH          = 2026-03-07T22:00:01.999584
MEAN_MOTION    = 15.87730339
ECCENTRICITY   = .0001828
INCLINATION    = 42.9995
RA_OF_ASC_NODE = 209.2293
ARG_OF_PERICENTER = 281.5815
MEAN_ANOMALY   = 44.9046

EPHEMERIS_TYPE = 0
CLASSIFICATION_TYPE = U
NORAD_CAT_ID   = 67955
ELEMENT_SET_NO = 999
REV_AT_EPOCH   = 291
BSTAR          = -.59753E-2
MEAN_MOTION_DOT = -.1442051E-1
MEAN_MOTION_DDOT = 0

CCSDS_OMM_VERS = 2.0
CREATION_DATE  = 
ORIGINATOR     = 

OBJECT_NAME    = STARLINK-36918
OBJECT_ID      = 2026-037AA
CENTER_NAME    = EARTH
REF_FRAME      = TEME
TIME_SYSTEM    = UTC
MEAN_ELEMENT_THEORY = SGP/SGP4

EPOCH          = 2026-03-07T22:00:01.999584
MEAN_MOTION    = 15.87830154
ECCENTRICITY   = .000183
INCLINATION    = 42.9996
RA_OF_ASC_NODE = 209.2197
ARG_OF_PERICENTER = 281.2660
MEAN_ANOMALY   = 48.9894

EPHEMERIS_TYPE = 0
CLASSIFICATION_TYPE = U
NORAD_CAT_ID   = 67956
ELEMENT_SET_NO = 999
REV_AT_EPOCH   = 291
BSTAR          = -.5974E-2
MEAN_MOTION_DOT = -.1448071E-1
MEAN_MOTION_DDOT = 0

CCSDS_OMM_VERS = 2.0
CREATION_DATE  = 
ORIGINATOR     = 

OBJECT_NAME    = STARLINK-36829
OBJECT_ID      = 2026-037AB
CENTER_NAME    = EARTH
REF_FRAME      = TEME
TIME_SYSTEM    = UTC
MEAN_ELEMENT_THEORY = SGP/SGP4

EPOCH          = 2026-03-07T22:00:01.999584
MEAN_MOTION    = 15.87635611
ECCENTRICITY   = .0001876
INCLINATION    = 42.9993
RA_OF_ASC_NODE = 209.2392
ARG_OF_PERICENTER = 281.4232
MEAN_ANOMALY   = 41.2615

EPHEMERIS_TYPE = 0
CLASSIFICATION_TYPE = U
NORAD_CAT_ID   = 67957
ELEMENT_SET_NO = 999
REV_AT_EPOCH   = 291
BSTAR          = -.59808E-2
MEAN_MOTION_DOT = -.143729E-1
MEAN_MOTION_DDOT = 0

CCSDS_OMM_VERS = 2.0
CREATION_DATE  = 
ORIGINATOR     = 

OBJECT_NAME    = STARLINK-36799
OBJECT_ID      = 2026-037AC
CENTER_NAME    = EARTH
REF_FRAME      = TEME
TIME_SYSTEM    = UTC
MEAN_ELEMENT_THEORY = SGP/SGP4

EPOCH          = 2026-03-07T22:00:01.999584
MEAN_MOTION    = 15.87956007
ECCENTRICITY   = .000198
INCLINATION    = 42.9992
RA_OF_ASC_NODE = 209.2114
ARG_OF_PERICENTER = 281.9343
MEAN_ANOMALY   = 51.8461

EPHEMERIS_TYPE = 0
CLASSIFICATION_TYPE = U
NORAD_CAT_ID   = 67958
ELEMENT_SET_NO = 999
REV_AT_EPOCH   = 291
BSTAR          = -.59283E-2
MEAN_MOTION_DOT = -.1446546E-1
MEAN_MOTION_DDOT = 0

CCSDS_OMM_VERS = 2.0
CREATION_DATE  = 
ORIGINATOR     = 

OBJECT_NAME    = STARLINK-36834
OBJECT_ID      = 2026-037AD
CENTER_NAME    = EARTH
REF_FRAME      = TEME
TIME_SYSTEM    = UTC
MEAN_ELEMENT_THEORY = SGP/SGP4

EPOCH          = 2026-03-07T22:00:01.999584
MEAN_MOTION    = 15.88157426
ECCENTRICITY   = .0001674
INCLINATION    = 42.9994
RA_OF_ASC_NODE = 209.1920
ARG_OF_PERICENTER = 280.1983
MEAN_ANOMALY   = 61.0855

EPHEMERIS_TYPE = 0
CLASSIFICATION_TYPE = U
NORAD_CAT_ID   = 67959
ELEMENT_SET_NO = 999
REV_AT_EPOCH   = 291
BSTAR          = -.59138E-2
MEAN_MOTION_DOT = -.1455991E-1
MEAN_MOTION_DDOT = 0

CCSDS_OMM_VERS = 2.0
CREATION_DATE  = 
ORIGINATOR     = 

OBJECT_NAME    = STARLINK-36841
OBJECT_ID      = 2026-037AE
CENTER_NAME    = EARTH
REF_FRAME      = TEME
TIME_SYSTEM    = UTC
MEAN_ELEMENT_THEORY = SGP/SGP4

EPOCH          = 2026-03-07T22:00:01.999584
MEAN_MOTION    = 15.88070072
ECCENTRICITY   = .0001783
INCLINATION    = 42.9991
RA_OF_ASC_NODE = 209.2016
ARG_OF_PERICENTER = 281.0792
MEAN_ANOMALY   = 56.3522

EPHEMERIS_TYPE = 0
CLASSIFICATION_TYPE = U
NORAD_CAT_ID   = 67960
ELEMENT_SET_NO = 999
REV_AT_EPOCH   = 291
BSTAR          = -.59288E-2
MEAN_MOTION_DOT = -.1453705E-1
MEAN_MOTION_DDOT = 0

